#dP2024  8 15 12  0  0.00000000      96 __u+U IGS20 EXT  IAC
## 2327 388800.00000000   900.00000000 60537 0.5000000000000
+   53   G02G03G04G05G06G07G08G09G10G11G12G13G14G15G16G17G18
+        G19G20G21G22G23G24G25G26G27G28G29G30G31G32R01R02R03
+        R04R05R07R08R09R11R12R14R15R16R17R18R19R20R21R22R24
+        R25R26  0  0  0  0  0  0  0  0  0  0  0  0  0  0  0
+          0  0  0  0  0  0  0  0  0  0  0  0  0  0  0  0  0
++         8  9  8  8  6  8  8  7  8  7  7 10  8  6  7  7  7
++         9  7  7  8  7  8  6  6  8  9  7  8  7  9  9  8  9
++         7  9  7  7  8  7  6  9  9  8  8  9  9  8  8  9  9
++         8  8  0  0  0  0  0  0  0  0  0  0  0  0  0  0  0
++         0  0  0  0  0  0  0  0  0  0  0  0  0  0  0  0  0
%c M  cc GPS ccc cccc cccc cccc cccc ccccc ccccc ccccc ccccc
%c cc cc ccc ccc cccc cccc cccc cccc ccccc ccccc ccccc ccccc
%f  0.0000000  0.000000000  0.00000000000  0.000000000000000
%f  0.0000000  0.000000000  0.00000000000  0.000000000000000
%i    0    0    0    0      0      0      0      0         0
%i    0    0    0    0      0      0      0      0         0
/* IAC                                ULTRA-RAPID PREDICTION
/* S/V CLOCKS ARE ALIGNED TO GNSS TIME                      
/* G:C1WC2W R:C1PC2P E:C1XC5X C:C2IC6I J:C1CC2S             
/* PCV:IGS20_2317 OL/AL:FES2004  NONE     YN ORB:CoN CLK:CoN
*  2024 08 16  0  0  0.00000000
PG02 -22488.992881 -13966.633143  -3242.563113   -378.174019
PG03 -12416.961780 -12983.496518  19435.958051    501.506080
PG04 -19000.187250  -4591.063296  18062.230982    424.913358
PG05   5765.155334  24715.959334  -7886.924349   -183.332081
PG06  -9189.340580  11431.017026  22209.964321     95.858768
PG07 -23075.861226  -3849.949679 -12468.388091    -51.248020
PG08  -9359.791833 -12403.551153 -21670.084232    317.033453
PG09 -24008.895478   5733.032260   9790.457608    315.789595
PG10  10474.549818 -19066.804409 -14792.447494    -95.142512
PG11   5356.652223  18804.482453  18034.175244   -721.981293
PG12  10657.355160  16533.772807  17589.003589   -530.648603
PG13   -477.274290  15797.245329 -21530.759207    671.020519
PG14 -13156.522248  15442.815355 -16982.899468    473.319093
PG15  11029.203953  11666.387806 -21682.588296    193.048169
PG16   -351.857717 -25916.009124  -4907.154291   -207.537587
PG17 -22006.148847  14189.605603   5382.618308    653.669020
PG18  22462.711620   3255.128883 -13952.715552   -646.438195
PG19 -16444.952552  16132.657855  12682.132113    525.091520
PG20   1302.156147  26374.912926   3594.951963    371.645882
PG21 -19665.787793 -16398.690562  -8419.202733    103.469543
PG22  -9986.617886  22340.876834 -10267.718257    -51.658276
PG23  14340.987346  -6457.841744 -21339.130594    298.187991
PG24  21009.149026  15533.449938  -6297.729511   -486.241370
PG25  15066.667695   4344.717690  21127.589577    499.305263
PG26   5159.544495 -24352.914192   8553.114962     99.705539
PG27   2503.917293 -17363.289641 -20106.831975    -33.057180
PG28  11333.979776 -10753.647672  21468.305457   -374.036193
PG29  23348.207455   -790.349354  12710.066394   -583.839346
PG30 -17118.096298   6117.860759 -19296.106468   -339.272654
PG31   -222.274900 -17076.709473  20017.753026   -225.818745
PG32  20178.326991 -16008.914043   6245.068501   -605.477425
PR01  17134.895770 -18621.468060  -3265.054768     94.625607
PR02   9074.079596 -19716.428074  13384.711244    -24.167636
PR03  -5094.674169 -10405.923925  22760.114444    105.717201
PR04 -15817.114504   4285.964887  19578.040503    250.121120
PR05 -18405.382057  16662.570455   5917.632156    136.157742
PR07   5463.989856   9989.417172 -22794.739692     88.878475
PR08  15920.281061  -4586.225116 -19325.936200     -6.353772
PR09   3271.834110  22930.985955 -10563.733631    203.625539
PR11  13379.474859  10022.375825  19273.467956     14.729881
PR12   7517.615002 -10454.700532  22047.458062     43.682738
PR14 -11354.373189 -21920.503202  -6451.325861     26.823313
PR15 -13258.418646  -8441.264373 -20068.487953     76.811878
PR16  -7430.418700  10219.960668 -22136.404679     28.293724
PR17 -17531.609591 -10533.609959 -15202.249879    113.759145
PR18 -25014.696856  -5091.348708    295.308017    157.210034
PR19 -21022.840955   1519.280747  14354.377157   -287.723984
PR20  -1629.993021  10302.122116  23284.101293   -117.710998
PR21  17054.955436  10749.529481  15650.527189   -126.301142
PR22  24939.114254   5144.672262  -1435.077365     68.624900
PR24    655.810733 -10940.278762 -23016.880216    -67.997239
PR25  17394.500336  11341.217296  14838.885271   -100.460485
PR26  15276.416180  -3397.144585 -20133.433888      9.841321
*  2024 08 16  0 15  0.00000000
PG02 -21874.242896 -13914.208814  -6027.594036   -378.167122
PG03 -12311.872287 -15141.732525  17903.577680    501.519525
PG04 -17163.697829  -5698.537030  19515.090443    424.920063
PG05   5585.018493  25449.345373  -5134.153768   -183.333152
PG06 -11326.486495  10135.155415  21857.345362     95.836763
PG07 -24132.622893  -4719.142074 -10078.916415    -51.242637
PG08  -7267.414633 -13694.028785 -21657.502484    317.046522
PG09 -23039.929974   4880.499590  12244.982985    315.803660
PG10  10625.283513 -17215.389693 -16819.227272    -95.152485
PG11   3491.710413  17750.777785  19496.500365   -721.986262
PG12  10357.933102  18473.402538  15776.855315   -530.651249
PG13  -2704.640348  16616.296823 -20704.965836    671.022536
PG14 -13290.245114  13385.230232 -18567.820253    473.326948
PG15   9171.402586  13156.436709 -21679.461545    193.052107
PG16    -37.575555 -26257.296056  -2061.881308   -207.528260
PG17 -22465.113212  14178.823506   2569.742272    653.660510
PG18  23626.868383   4144.608021 -11619.254624   -646.440991
PG19 -17768.883619  16467.451541  10225.173557    525.096160
PG20    952.895837  25868.923889   6353.882192    371.645565
PG21 -18569.288801 -16074.989490 -10924.920710    103.468986
PG22 -10072.742564  20966.796988 -12672.733204    -51.661992
PG23  14455.773765  -3984.037081 -21878.512833    298.195781
PG24  20157.682532  15446.643278  -8896.721564   -486.241949
PG25  15056.682961   6798.046647  20511.623342    499.305453
PG26   5587.190684 -23226.664008  11047.281279     99.698633
PG27   4449.981966 -18358.995813 -18787.658722    -33.057604
PG28  13441.215558  -9560.451224  20807.290099   -374.049601
PG29  21996.055107     48.870846  14931.994282   -583.837276
PG30 -18915.244418   4911.397030 -17949.776313   -339.266526
PG31   1880.245243 -15922.049294  20889.022563   -225.818408
PG32  20767.809737 -16059.768409   3445.337886   -605.474875
PR01  16658.249008 -18235.140262  -6404.976867     94.626684
PR02   9902.666089 -20949.162388  10627.554794    -24.167955
PR03  -3397.580031 -12571.754453  21963.163657    105.718069
PR04 -14155.976849   2407.048469  21111.180779    250.122738
PR05 -17686.010726  16066.454393   8971.962584    136.158327
PR07   3747.186669  12173.012736 -22074.195114     88.879212
PR08  14290.442591  -2694.400257 -20891.432322     -6.353869
PR09   2758.163242  21544.586354 -13281.129981    203.627521
PR11  14298.662251  12084.735729  17329.741186     14.728824
PR12   8499.574724  -7879.040421  22752.162754     43.683174
PR14 -11686.722658 -22439.150828  -3329.889694     26.823382
PR15 -14190.193731 -10624.881841 -18320.966123     76.811560
PR16  -8429.111138   7627.046478 -22816.129194     28.294073
PR17 -15556.564536 -10079.198423 -17490.729239    113.762012
PR18 -24888.239710  -4858.196873  -2935.902942    157.211716
PR19 -22635.251980   1371.175129  11664.664340   -287.725251
PR20  -4440.208451   9723.400911  23168.725749   -117.711436
PR21  15038.020508  10260.437640  17883.861966   -126.303865
PR22  24950.715184   4994.991883   1778.115996     68.617960
PR24   3462.091598 -10489.508954 -22977.835305    -67.998617
PR25  15483.051843  10845.119559  17145.994556   -100.461164
PR26  13614.495715  -1430.595123 -21511.570347      9.843143
EOF
